{
  "type": "FeatureCollection",
  "features": [
    {
      "type": "Feature",
      "properties": {
        "norad_id": 40069,
        "name": "METEOR-M 2",
        "group": "weather",
        "lat": -75.94296810050905,
        "lon": -1.9708800531716877,
        "alt_km": 826.2966548759359,
        "timestamp": "2025-12-09T16:56:36.222458+00:00",
        "meta_object_name": "METEOR-M 2",
        "meta_object_id": "2014-037A",
        "meta_epoch": "2025-12-09T12:14:42.474912",
        "meta_mean_motion": 14.21383681,
        "meta_eccentricity": 0.000482,
        "meta_inclination": 98.4899,
        "meta_ra_of_asc_node": 321.2181,
        "meta_arg_of_pericenter": 220.9544,
        "meta_mean_anomaly": 139.1272,
        "meta_ephemeris_type": 0,
        "meta_classification_type": "U",
        "meta_norad_cat_id": 40069,
        "meta_element_set_no": 999,
        "meta_rev_at_epoch": 59237,
        "meta_bstar": 7.76e-05,
        "meta_mean_motion_dot": 1.27e-06,
        "meta_mean_motion_ddot": 0,
        "tle_line1": "1 40069U 14037A   25343.51021383  .00000127  00000+0  77600-4 0  9997",
        "tle_line2": "2 40069  98.4899 321.2181 0004820 220.9544 139.1272 14.21383681592374"
      },
      "geometry": {
        "type": "Point",
        "coordinates": [
          -1.9708800531716877,
          -75.94296810050905
        ]
      }
    },
    {
      "type": "Feature",
      "properties": {
        "norad_id": 40267,
        "name": "HIMAWARI-8",
        "group": "weather",
        "lat": -0.005591173494848561,
        "lon": 113.50246632193486,
        "alt_km": 35791.7244545779,
        "timestamp": "2025-12-09T16:56:36.222470+00:00",
        "meta_object_name": "HIMAWARI-8",
        "meta_object_id": "2014-060A",
        "meta_epoch": "2025-12-09T10:49:08.509152",
        "meta_mean_motion": 1.00270631,
        "meta_eccentricity": 0.0001255,
        "meta_inclination": 0.0331,
        "meta_ra_of_asc_node": 217.3185,
        "meta_arg_of_pericenter": 79.7714,
        "meta_mean_anomaly": 84.2991,
        "meta_ephemeris_type": 0,
        "meta_classification_type": "U",
        "meta_norad_cat_id": 40267,
        "meta_element_set_no": 999,
        "meta_rev_at_epoch": 4085,
        "meta_bstar": 0,
        "meta_mean_motion_dot": -2.73e-06,
        "meta_mean_motion_ddot": 0,
        "tle_line1": "1 40267U 14060A   25343.45079293 -.00000273  00000+0  00000+0 0  9997",
        "tle_line2": "2 40267   0.0331 217.3185 0001255  79.7714  84.2991  1.00270631 40853"
      },
      "geometry": {
        "type": "Point",
        "coordinates": [
          113.50246632193486,
          -0.005591173494848561
        ]
      }
    },
    {
      "type": "Feature",
      "properties": {
        "norad_id": 40367,
        "name": "FENGYUN 2G",
        "group": "weather",
        "lat": -0.2204674597436994,
        "lon": 72.47183596961742,
        "alt_km": 35800.24761590784,
        "timestamp": "2025-12-09T16:56:36.222482+00:00",
        "meta_object_name": "FENGYUN 2G",
        "meta_object_id": "2014-090A",
        "meta_epoch": "2025-12-08T17:30:10.330272",
        "meta_mean_motion": 1.00265504,
        "meta_eccentricity": 0.0003085,
        "meta_inclination": 5.1581,
        "meta_ra_of_asc_node": 75.1439,
        "meta_arg_of_pericenter": 197.6958,
        "meta_mean_anomaly": 167.0613,
        "meta_ephemeris_type": 0,
        "meta_classification_type": "U",
        "meta_norad_cat_id": 40367,
        "meta_element_set_no": 999,
        "meta_rev_at_epoch": 4009,
        "meta_bstar": 0,
        "meta_mean_motion_dot": -3e-06,
        "meta_mean_motion_ddot": 0,
        "tle_line1": "1 40367U 14090A   25342.72928623 -.00000300  00000+0  00000+0 0  9991",
        "tle_line2": "2 40367   5.1581  75.1439 0003085 197.6958 167.0613  1.00265504 40092"
      },
      "geometry": {
        "type": "Point",
        "coordinates": [
          72.47183596961742,
          -0.2204674597436994
        ]
      }
    },
    {
      "type": "Feature",
      "properties": {
        "norad_id": 40732,
        "name": "METEOSAT-11 (MSG-4)",
        "group": "weather",
        "lat": -2.7297244799533638,
        "lon": -17.808470806079058,
        "alt_km": 35791.37657361572,
        "timestamp": "2025-12-09T16:56:36.222494+00:00",
        "meta_object_name": "METEOSAT-11 (MSG-4)",
        "meta_object_id": "2015-034A",
        "meta_epoch": "2025-12-09T05:03:28.023264",
        "meta_mean_motion": 1.00266394,
        "meta_eccentricity": 9.7e-05,
        "meta_inclination": 2.7265,
        "meta_ra_of_asc_node": 72.0117,
        "meta_arg_of_pericenter": 121.8112,
        "meta_mean_anomaly": 329.5993,
        "meta_ephemeris_type": 0,
        "meta_classification_type": "U",
        "meta_norad_cat_id": 40732,
        "meta_element_set_no": 999,
        "meta_rev_at_epoch": 531,
        "meta_bstar": 0,
        "meta_mean_motion_dot": 6.3e-07,
        "meta_mean_motion_ddot": 0,
        "tle_line1": "1 40732U 15034A   25343.21074101  .00000063  00000+0  00000+0 0  9999",
        "tle_line2": "2 40732   2.7265  72.0117 0000970 121.8112 329.5993  1.00266394  5310"
      },
      "geometry": {
        "type": "Point",
        "coordinates": [
          -17.808470806079058,
          -2.7297244799533638
        ]
      }
    },
    {
      "type": "Feature",
      "properties": {
        "norad_id": 41105,
        "name": "ELEKTRO-L 2",
        "group": "weather",
        "lat": -5.668794022515345,
        "lon": -41.753033383348196,
        "alt_km": 35775.661140707074,
        "timestamp": "2025-12-09T16:56:36.222505+00:00",
        "meta_object_name": "ELEKTRO-L 2",
        "meta_object_id": "2015-074A",
        "meta_epoch": "2025-12-09T01:31:10.511904",
        "meta_mean_motion": 1.00271905,
        "meta_eccentricity": 0.00038363,
        "meta_inclination": 6.2161,
        "meta_ra_of_asc_node": 72.8685,
        "meta_arg_of_pericenter": 198.9202,
        "meta_mean_anomaly": 174.5582,
        "meta_ephemeris_type": 0,
        "meta_classification_type": "U",
        "meta_norad_cat_id": 41105,
        "meta_element_set_no": 999,
        "meta_rev_at_epoch": 3660,
        "meta_bstar": 0,
        "meta_mean_motion_dot": -1.16e-06,
        "meta_mean_motion_ddot": 0,
        "tle_line1": "1 41105U 15074A   25343.06331611 -.00000116  00000+0  00000+0 0  9993",
        "tle_line2": "2 41105   6.2161  72.8685 0003836 198.9202 174.5582  1.00271905 36608"
      },
      "geometry": {
        "type": "Point",
        "coordinates": [
          -41.753033383348196,
          -5.668794022515345
        ]
      }
    },
    {
      "type": "Feature",
      "properties": {
        "norad_id": 41752,
        "name": "INSAT-3DR",
        "group": "weather",
        "lat": -0.03320778364626451,
        "lon": 46.9605180499671,
        "alt_km": 35831.240306073756,
        "timestamp": "2025-12-09T16:56:36.222518+00:00",
        "meta_object_name": "INSAT-3DR",
        "meta_object_id": "2016-054A",
        "meta_epoch": "2025-12-09T10:30:02.839104",
        "meta_mean_motion": 1.00270349,
        "meta_eccentricity": 0.0014506,
        "meta_inclination": 0.0839,
        "meta_ra_of_asc_node": 86.627,
        "meta_arg_of_pericenter": 183.5794,
        "meta_mean_anomaly": 39.7407,
        "meta_ephemeris_type": 0,
        "meta_classification_type": "U",
        "meta_norad_cat_id": 41752,
        "meta_element_set_no": 999,
        "meta_rev_at_epoch": 3391,
        "meta_bstar": 0,
        "meta_mean_motion_dot": -7.5e-07,
        "meta_mean_motion_ddot": 0,
        "tle_line1": "1 41752U 16054A   25343.43753286 -.00000075  00000+0  00000+0 0  9991",
        "tle_line2": "2 41752   0.0839  86.6270 0014506 183.5794  39.7407  1.00270349 33915"
      },
      "geometry": {
        "type": "Point",
        "coordinates": [
          46.9605180499671,
          -0.03320778364626451
        ]
      }
    },
    {
      "type": "Feature",
      "properties": {
        "norad_id": 41836,
        "name": "HIMAWARI-9",
        "group": "weather",
        "lat": 0.023419360054267247,
        "lon": 113.59897042604122,
        "alt_km": 35792.199115145995,
        "timestamp": "2025-12-09T16:56:36.222530+00:00",
        "meta_object_name": "HIMAWARI-9",
        "meta_object_id": "2016-064A",
        "meta_epoch": "2025-12-09T10:49:08.509152",
        "meta_mean_motion": 1.0026858,
        "meta_eccentricity": 0.0001389,
        "meta_inclination": 0.0237,
        "meta_ra_of_asc_node": 73.7474,
        "meta_arg_of_pericenter": 191.8804,
        "meta_mean_anomaly": 115.8679,
        "meta_ephemeris_type": 0,
        "meta_classification_type": "U",
        "meta_norad_cat_id": 41836,
        "meta_element_set_no": 999,
        "meta_rev_at_epoch": 3330,
        "meta_bstar": 0,
        "meta_mean_motion_dot": -2.73e-06,
        "meta_mean_motion_ddot": 0,
        "tle_line1": "1 41836U 16064A   25343.45079293 -.00000273  00000+0  00000+0 0  9996",
        "tle_line2": "2 41836   0.0237  73.7474 0001389 191.8804 115.8679  1.00268580 33306"
      },
      "geometry": {
        "type": "Point",
        "coordinates": [
          113.59897042604122,
          0.023419360054267247
        ]
      }
    }
  ]
}